0 COSMOS 1275 DEB
1 12693U 81053AM  13283.05131141  .00001054  00000-0  55571-3 0  8468
2 12693 083.1441 263.1910 0050231 260.7331 167.4852 14.12484268332842
0 COSMOS 1275 DEB
1 12693U 81053AM  13286.46078628  .00001033  00000-0  54421-3 0  8488
2 12693 083.1444 260.5778 0050377 250.2564 224.8074 14.12491664333327
0 COSMOS 1275 DEB
1 12693U 81053AM  13287.86285817  .00001282  00000-0  67757-3 0  8496
2 12693 083.1447 259.5031 0050412 245.9148 154.4615 14.12495934333524
0 COSMOS 1275 DEB
1 12693U 81053AM  13288.92763747  .00001346  00000-0  71148-3 0  8509
2 12693 083.1450 258.6869 0050470 242.6291 168.9584 14.12499475333679
0 COSMOS 1275 DEB
1 12693U 81053AM  13290.29064258  .00001390  00000-0  73486-3 0  8510
2 12693 083.1453 257.6423 0050476 238.4106 259.9923 14.12502825333864
0 COSMOS 1275 DEB
1 12693U 81053AM  13291.49522053  .00001354  00000-0  71572-3 0  8520
2 12693 083.1455 256.7191 0050494 234.6754 265.4264 14.12505756334031
0 COSMOS 1275 DEB
1 12693U 81053AM  13292.96687022  .00001518  00000-0  80327-3 0  8532
2 12693 083.1457 255.5915 0050511 230.1100 188.9768 14.12509120334240
0 COSMOS 1275 DEB
1 12693U 81053AM  13294.46973339  .00001484  00000-0  78537-3 0  8541
2 12693 083.1458 254.4400 0050565 225.4788 271.2391 14.12514740334451
0 COSMOS 1275 DEB
1 12693U 81053AM  13295.87071841  .00001543  00000-0  81642-3 0  8552
2 12693 083.1458 253.3667 0050635 221.2005 195.4233 14.12518771334650
